NORAD_CAT_ID,OBJECT_NAME,OBJECT_TYPE,EPOCH,MEAN_MOTION,ECCENTRICITY,INCLINATION,RA_OF_ASC_NODE,ARG_OF_PERICENTER,MEAN_ANOMALY,BSTAR,MEAN_MOTION_DOT,MEAN_MOTION_DDOT,TLE_LINE0,TLE_LINE1,TLE_LINE2,SEMIMAJOR_AXIS,PERIOD,APOGEE,PERIGEE,DECAYED
54082.0,STARLINK-5210,PAYLOAD,2023-06-07 10:49:43,15.08837891,0.0001042,53.2157,171.486,78.3345,281.7764,3.2357e-05,2.27e-06,0.0,0 STARLINK-5210,1 54082U 22136AH  23158.45119943  .00000227  00000-0  32357-4 0  9993,2 54082  53.2157 171.4860 0001042  78.3345 281.7764 15.08837891 35078,6917.887,95.438,540.473,539.031,0.0
54082.0,STARLINK-5210,PAYLOAD,2023-06-08 07:29:44,15.0884032,0.0001061,53.2159,167.6207,81.4751,278.6361,2.492e-05,1.09e-06,0.0,0 STARLINK-5210,1 54082U 22136AH  23159.31231851  .00000109  00000-0  24920-4 0  9998,2 54082  53.2159 167.6207 0001061  81.4751 278.6361 15.08840320 35685,6917.879,95.438,540.478,539.01,0.0
54082.0,STARLINK-5210,PAYLOAD,2023-06-09 07:20:31,15.08837935,0.0001081,53.2159,163.1602,81.6281,278.4833,4.6805e-05,4.57e-06,0.0,0 STARLINK-5210,1 54082U 22136AH  23160.30592051  .00000457  00000-0  46805-4 0  9993,2 54082  53.2159 163.1602 0001081  81.6281 278.4833 15.08837935 35351,6917.887,95.438,540.5,539.004,0.0
54082.0,STARLINK-5210,PAYLOAD,2023-06-09 16:52:50,15.08835029,0.0001039,53.2155,161.3767,84.5067,275.6043,1.5894e-05,-3.5e-07,0.0,0 STARLINK-5210,1 54082U 22136AH  23160.70336401 -.00000035  00000-0  15894-4 0  9999,2 54082  53.2155 161.3767 0001039  84.5067 275.6043 15.08835029 35899,6917.896,95.438,540.479,539.042,0.0
54082.0,STARLINK-5210,PAYLOAD,2023-06-10 10:22:05,15.08836365,0.0001087,53.2158,158.1052,83.2483,276.8633,1.9689e-05,2.6e-07,0.0,0 STARLINK-5210,1 54082U 22136AH  23161.43200551  .00000026  00000-0  19689-4 0  9991,2 54082  53.2158 158.1052 0001087  83.2483 276.8633 15.08836365 35526,6917.891,95.438,540.508,539.005,0.0
54082.0,STARLINK-5210,PAYLOAD,2023-06-11 08:37:28,15.08840719,0.0001081,53.2159,153.9419,81.3356,278.7759,5.2243e-05,5.44e-06,0.0,0 STARLINK-5210,1 54082U 22136AH  23162.35936305  .00000544  00000-0  52243-4 0  9994,2 54082  53.2159 153.9419 0001081  81.3356 278.7759 15.08840719 36146,6917.878,95.438,540.491,538.995,0.0
54082.0,STARLINK-5210,PAYLOAD,2023-06-11 11:48:15,15.08842851,0.0001091,53.2158,153.3471,81.2903,278.8213,6.8833e-05,8.08e-06,0.0,0 STARLINK-5210,1 54082U 22136AH  23162.49184126  .00000808  00000-0  68833-4 0  9990,2 54082  53.2158 153.3471 0001091  81.2903 278.8213 15.08842851 35688,6917.872,95.437,540.491,538.982,0.0
54082.0,STARLINK-5210,PAYLOAD,2023-06-11 16:34:24,15.08838968,0.0001099,53.2159,152.4551,83.7464,276.3653,6.0386e-05,6.73e-06,0.0,0 STARLINK-5210,1 54082U 22136AH  23162.69056402  .00000673  00000-0  60386-4 0  9992,2 54082  53.2159 152.4551 0001099  83.7464 276.3653 15.08838968 35714,6917.884,95.438,540.509,538.988,0.0
54082.0,STARLINK-5210,PAYLOAD,2023-06-11 22:55:57,15.08838266,0.0001091,53.2157,151.2651,84.7093,275.4023,7.9395e-05,9.76e-06,0.0,0 STARLINK-5210,1 54082U 22136AH  23162.95552405  .00000976  00000-0  79395-4 0  9991,2 54082  53.2157 151.2651 0001091  84.7093 275.4023 15.08838266 35757,6917.886,95.438,540.505,538.996,0.0
54082.0,STARLINK-5210,PAYLOAD,2023-06-12 16:25:11,15.0883995,0.0001094,53.2161,147.9943,83.2853,276.8264,5.5534e-05,5.96e-06,0.0,0 STARLINK-5210,1 54082U 22136AH  23163.68416385  .00000596  00000-0  55534-4 0  9995,2 54082  53.2161 147.9943 0001094  83.2853 276.8264 15.08839950 36348,6917.881,95.438,540.502,538.989,0.0
54082.0,STARLINK-5210,PAYLOAD,2023-06-12 22:46:44,15.08837478,0.0001176,53.216,146.8054,81.7738,278.3387,3.1423e-07,-2.83e-06,0.0,0 STARLINK-5210,1 54082U 22136AH  23163.94912755 -.00000283  00000-0  31423-6 0  9993,2 54082  53.2160 146.8054 0001176  81.7738 278.3387 15.08837478 35901,6917.888,95.438,540.567,538.94,0.0
54082.0,STARLINK-5210,PAYLOAD,2023-06-13 08:19:03,15.08837482,0.0001223,53.216,145.0213,88.4229,271.6903,9.3825e-06,-1.39e-06,0.0,0 STARLINK-5210,1 54082U 22136AH  23164.34656751 -.00000139  00000-0  93825-5 0  9992,2 54082  53.2160 145.0213 0001223  88.4229 271.6903 15.08837482 35962,6917.888,95.438,540.599,538.907,0.0
54082.0,STARLINK-5210,PAYLOAD,2023-06-14 09:45:13,15.08840581,0.000126,53.2163,140.2629,86.9193,273.1943,2.7205e-05,1.45e-06,0.0,0 STARLINK-5210,1 54082U 22136AH  23165.40640499  .00000145  00000-0  27205-4 0  9996,2 54082  53.2163 140.2629 0001260  86.9193 273.1943 15.08840581 36604,6917.879,95.438,540.615,538.872,0.0
54082.0,STARLINK-5210,PAYLOAD,2023-06-15 09:36:00,15.08840003,0.0001314,53.217,135.8023,89.0986,271.0157,5.671e-05,6.15e-06,0.0,0 STARLINK-5210,1 54082U 22136AH  23166.40000560  .00000615  00000-0  56710-4 0  9991,2 54082  53.2170 135.8023 0001314  89.0986 271.0157 15.08840003 36270,6917.88,95.438,540.654,538.836,0.0
54082.0,STARLINK-5210,PAYLOAD,2023-06-16 01:29:52,15.08838252,0.0001333,53.2172,132.8284,87.804,272.3105,1.1313e-05,-1.08e-06,0.0,0 STARLINK-5210,1 54082U 22136AH  23167.06240956 -.00000108  00000-0  11313-4 0  9997,2 54082  53.2172 132.8284 0001333  87.8040 272.3105 15.08838252 36850,6917.886,95.438,540.673,538.829,0.0
54082.0,STARLINK-5210,PAYLOAD,2023-06-16 04:40:38,15.08842633,0.000131,53.2171,132.2347,91.1792,268.935,3.4793e-05,2.66e-06,0.0,0 STARLINK-5210,1 54082U 22136AH  23167.19488619  .00000266  00000-0  34793-4 0  9992,2 54082  53.2171 132.2347 0001310  91.1792 268.9350 15.08842633 36390,6917.872,95.437,540.644,538.831,0.0
54082.0,STARLINK-5210,PAYLOAD,2023-06-16 14:12:57,15.08841144,0.000124,53.2167,130.4506,88.7867,271.3267,2.2113e-05,6.4e-07,0.0,0 STARLINK-5210,1 54082U 22136AH  23167.59232705  .00000064  00000-0  22113-4 0  9998,2 54082  53.2167 130.4506 0001240  88.7867 271.3267 15.08841144 36457,6917.877,95.437,540.6,538.884,0.0
54082.0,STARLINK-5210,PAYLOAD,2023-06-17 06:06:47,15.08845939,0.0001234,53.2167,127.4776,92.5861,267.5273,7.8143e-05,9.56e-06,0.0,0 STARLINK-5210,1 54082U 22136AH  23168.25472211  .00000956  00000-0  78143-4 0  9994,2 54082  53.2167 127.4776 0001234  92.5861 267.5273 15.08845939 37037,6917.862,95.437,540.581,538.874,0.0
54082.0,STARLINK-5210,PAYLOAD,2023-06-17 14:03:44,15.08837802,0.0001208,53.2166,125.9908,91.1905,268.9226,-8.983e-06,-4.31e-06,0.0,0 STARLINK-5210,1 54082U 22136AH  23168.58592949 -.00000431  00000-0 -89830-5 0  9997,2 54082  53.2166 125.9908 0001208  91.1905 268.9226 15.08837802 37089,6917.887,95.438,540.588,538.916,0.0
54082.0,STARLINK-5210,PAYLOAD,2023-06-17 20:25:17,15.08830426,0.0001525,53.2169,124.8017,93.0596,267.0571,1.6725e-05,-2.2e-07,0.0,0 STARLINK-5210,1 54082U 22136AH  23168.85089568 -.00000022  00000-0  16725-4 0  9992,2 54082  53.2169 124.8017 0001525  93.0596 267.0571 15.08830426 36649,6917.91,95.438,540.83,538.72,0.0
54082.0,STARLINK-5210,PAYLOAD,2023-06-18 05:57:37,15.08824106,0.000128,53.2174,123.0183,98.9349,261.1788,-8.2252e-05,-1.596e-05,0.0,0 STARLINK-5210,1 54082U 22136AH  23169.24834522 -.00001596  00000-0 -82252-4 0  9990,2 54082  53.2174 123.0183 0001280  98.9349 261.1788 15.08824106 37181,6917.929,95.439,540.679,538.908,0.0
54082.0,STARLINK-5210,PAYLOAD,2023-06-18 13:54:32,15.08837136,0.000131,53.2176,121.5309,92.6462,267.468,-3.8241e-05,-8.96e-06,0.0,0 STARLINK-5210,1 54082U 22136AH  23169.57953771 -.00000896  00000-0 -38241-4 0  9995,2 54082  53.2176 121.5309 0001310  92.6462 267.4680 15.08837136 37230,6917.889,95.438,540.66,538.848,0.0
54082.0,STARLINK-5210,PAYLOAD,2023-06-19 13:45:18,15.0884241,0.0001374,53.2177,117.0686,86.8498,273.2651,-1.6056e-05,-5.43e-06,0.0,0 STARLINK-5210,1 54082U 22136AH  23170.57313411 -.00000543  00000-0 -16056-4 0  9997,2 54082  53.2177 117.0686 0001374  86.8498 273.2651 15.08842410 36900,6917.873,95.437,540.689,538.788,0.0
54082.0,STARLINK-5210,PAYLOAD,2023-06-20 05:39:10,15.08837945,0.0001246,53.2169,114.0938,84.8069,275.3065,0.00014768,2.063e-05,0.0,0 STARLINK-5210,1 54082U 22136AH  23171.23553445  .00002063  00000-0  14768-3 0  9998,2 54082  53.2169 114.0938 0001246  84.8069 275.3065 15.08837945 37009,6917.887,95.438,540.614,538.89,0.0
54082.0,STARLINK-5210,PAYLOAD,2023-06-20 13:36:06,15.08838302,0.0001378,53.2171,112.6113,77.5252,282.5894,8.9451e-05,1.136e-05,0.0,0 STARLINK-5210,1 54082U 22136AH  23171.56673732  .00001136  00000-0  89451-4 0  9998,2 54082  53.2171 112.6113 0001378  77.5252 282.5894 15.08838302 37053,6917.886,95.438,540.704,538.797,0.0
54082.0,STARLINK-5210,PAYLOAD,2023-06-21 02:19:10,15.08849141,0.0001354,53.2164,110.2269,93.7277,266.387,8.1488e-05,1.01e-05,0.0,0 STARLINK-5210,1 54082U 22136AH  23172.09664850  .00001010  00000-0  81488-4 0  9991,2 54082  53.2164 110.2269 0001354  93.7277 266.3870 15.08849141 37611,6917.852,95.437,540.654,538.781,0.0
54082.0,STARLINK-5210,PAYLOAD,2023-06-21 05:29:56,15.08851352,0.0001274,53.2164,109.6322,101.0614,259.0521,3.3375e-05,2.43e-06,0.0,0 STARLINK-5210,1 54082U 22136AH  23172.22912765  .00000243  00000-0  33375-4 0  9996,2 54082  53.2164 109.6322 0001274 101.0614 259.0521 15.08851352 37150,6917.846,95.437,540.592,538.829,0.0
54082.0,STARLINK-5210,PAYLOAD,2023-06-21 13:26:53,15.08834739,0.0001779,53.2175,108.1499,81.5539,278.5655,-3.4416e-05,-8.36e-06,0.0,0 STARLINK-5210,1 54082U 22136AH  23172.56034252 -.00000836  00000-0 -34416-4 0  9996,2 54082  53.2175 108.1499 0001779  81.5539 278.5655 15.08834739 37681,6917.896,95.438,540.992,538.531,0.0
54082.0,STARLINK-5210,PAYLOAD,2023-06-22 02:09:57,15.08840842,0.0001237,53.2165,105.767,101.4745,258.6386,2.5007e-05,1.1e-06,0.0,0 STARLINK-5210,1 54082U 22136AH  23173.09025436  .00000110  00000-0  25007-4 0  9998,2 54082  53.2165 105.7670 0001237 101.4745 258.6386 15.08840842 37765,6917.878,95.438,540.599,538.887,0.0
54082.0,STARLINK-5210,PAYLOAD,2023-06-23 05:11:30,15.08847785,0.0001071,53.2166,100.7138,90.2145,269.897,3.7647e-05,3.12e-06,0.0,0 STARLINK-5210,1 54082U 22136AH  23174.21633079  .00000312  00000-0  37647-4 0  9998,2 54082  53.2166 100.7138 0001071  90.2145 269.8970 15.08847785 37930,6917.857,95.437,540.462,538.981,0.0
